{
  "norad_id": 49418,
  "name": "STARLINK-3111",
  "history": [
    {
      "epoch": "2026-03-28T20:21:02.752128Z",
      "apogee_km": 540.7363249903929,
      "perigee_km": 538.7460514356453,
      "latitude_deg": 5.1974440631399195e-06,
      "longitude_deg": 11.591924559433428,
      "height_km": 540.655491060107,
      "semi_major_axis_km": 6917.878188213019,
      "eccentricity": 0.00014385,
      "inclination_deg": 53.2165,
      "raan_deg": 143.1159,
      "arg_perigee_deg": 91.0826,
      "mean_anomaly_deg": 269.0331,
      "mean_motion_rev_day": 15.0884072
    }
  ]
}