{"fetched_at":"2026-03-30T06:02:59Z","count":15439,"tles":[{"name":"STARLINK-3111","line1":"1 49418U 21104L   26087.84794852 -.00001295  00000+0 -63259-4 0  9991","line2":"2 49418  53.2165 143.1159 0001438  91.0826 269.0331 15.08840720241518","category":"Starlink"}]}